OBJECT_NAME,OBJECT_ID,EPOCH,MEAN_MOTION,ECCENTRICITY,INCLINATION,RA_OF_ASC_NODE,ARG_OF_PERICENTER,MEAN_ANOMALY,EPHEMERIS_TYPE,CLASSIFICATION_TYPE,NORAD_CAT_ID,ELEMENT_SET_NO,REV_AT_EPOCH,BSTAR,MEAN_MOTION_DOT,MEAN_MOTION_DDOT
GONETS-M 19,2020-068C,2026-07-01T23:02:13.423776,12.42892324,.00136485,82.4973,337.8758,19.0772,341.0816,0,U,46488,999,26108,-.40997227E-3,-.47E-6,0
DEKART,2020-068H,2026-07-01T23:31:51.115008,15.37683443,.00077617,97.8734,193.3128,221.3045,138.7612,0,U,46493,999,31804,.40169008E-3,.14797E-3,0
NORBI,2020-068J,2026-07-01T22:51:58.551264,15.49086179,.00067826,97.8620,200.2247,186.4645,173.6518,0,U,46494,999,31849,.52641246E-3,.28556E-3,0
SALSAT,2020-068K,2026-07-01T22:15:07.293600,15.30008157,.00080276,97.8846,186.8910,245.2054,114.8351,0,U,46495,999,31761,.30790672E-3,.8869E-4,0
ICEYE-X6,2020-068M,2026-07-01T22:56:04.710048,15.04600040,.00083529,98.0967,177.3341,50.0319,310.1638,0,U,46497,999,31545,.21201561E-3,.291E-4,0
NETSAT-4,2020-068U,2026-07-01T23:09:41.770656,15.44359065,.00033922,97.8597,192.3974,253.0481,107.0394,0,U,46504,999,31805,.46128639E-3,.21218E-3,0
NETSAT-3,2020-068V,2026-07-01T11:07:56.142336,15.43171946,.00028947,97.8647,190.0546,286.5770,73.5158,0,U,46505,999,31788,.49071231E-3,.21692E-3,0
NETSAT-1,2020-068W,2026-07-01T22:26:31.192800,15.34979653,.00031628,97.8743,184.7190,339.3476,20.7638,0,U,46506,999,31756,.4338305E-3,.14646E-3,0
NETSAT-2,2020-068X,2026-07-01T06:32:13.595712,15.46605782,.0001498,97.8608,191.5959,318.0900,42.0233,0,U,46507,999,31791,.62895E-3,.3131E-3,0
TIANQI-6,2020-076D,2026-07-01T18:38:49.153920,15.07281217,.00109841,35.0001,318.9180,296.8980,63.0607,0,U,46810,999,31078,.26585039E-3,.4073E-4,0
KSM1-C,2020-081B,2026-07-01T20:57:33.996960,15.26987143,.00032039,36.8968,328.2604,328.7512,31.3046,0,U,46906,999,31141,.40670121E-3,.10948E-3,0
KSM1-D,2020-081C,2026-07-01T19:54:00.543744,15.24933941,.000368,36.8982,337.8268,359.8211,0.2536,0,U,46907,999,31133,.35593175E-3,.8987E-4,0
KSM1-A,2020-081H,2026-07-01T21:13:08.126112,15.26193046,.00022416,36.8980,330.6985,53.4222,306.6733,0,U,46912,999,31142,.38536611E-3,.10118E-3,0
R2,2020-081J,2026-07-01T20:17:08.952864,15.25645687,.00071185,36.8976,330.9983,41.4328,318.6960,0,U,46913,999,31422,.37889543E-3,.9787E-4,0
KSM1-B,2020-081K,2026-07-01T20:01:56.239680,15.24722181,.00049216,36.9038,338.4328,29.7464,330.3564,0,U,46914,999,31442,.37992513E-3,.954E-4,0
GONETS-M 20,2020-091A,2026-07-01T21:33:02.529216,12.42893708,.00218015,82.5059,293.2912,146.5867,213.6593,0,U,47227,999,25290,-.44355118E-3,-.51E-6,0
GONETS-M 21,2020-091B,2026-07-01T22:51:25.358976,12.42886959,.00154401,82.4984,291.9554,159.2215,200.9495,0,U,47228,999,25290,-.25615455E-3,-.26E-6,0
GONETS-M 22,2020-091C,2026-07-01T22:12:35.716032,12.42892672,.00227325,82.5041,292.8777,142.0834,218.1851,0,U,47229,999,25285,-.96557028E-3,-.124E-5,0
CUBEL,2021-006AM,2026-07-01T21:32:42.145728,15.41745756,.00080033,97.2319,233.3462,119.6224,240.5821,0,U,47448,999,30202,.5754372E-3,.24308E-3,0
ARKTIKA-M 1,2021-016A,2026-06-29T22:50:46.732128,2.00617895,.72928178,63.2520,55.7907,269.9910,14.5481,0,U,47719,999,3904,0,-.281E-5,0
STARLINK-2342,2021-021Z,2026-07-02T00:00:02.000160,15.86514971,.00044544,53.1528,73.5413,227.8428,90.7030,0,U,47883,999,592,.91290638E-3,.241417E-2,0
GRUS-1B,2021-022C,2026-07-01T22:21:05.703264,14.98747411,.00147596,97.5357,65.6417,269.7704,90.1828,0,U,47934,999,28810,.96279194E-4,.1104E-4,0
UNISAT-7,2021-022P,2026-07-01T06:05:11.685408,15.40850761,.00098094,97.3881,87.3271,36.3988,323.7923,0,U,47945,999,29202,.45771795E-3,.18748E-3,0
GLOBAL-9,2021-023G,2026-07-01T11:03:22.419360,15.47103848,.00029577,44.9790,170.2687,48.4871,311.6273,0,U,47971,999,29715,.41695803E-3,.21304E-3,0
AII-BRAVO,2021-034C,2026-07-01T20:41:49.943904,15.03585386,.00051164,97.5607,237.4402,196.7715,163.3343,0,U,48270,999,28182,.30557535E-3,.4117E-4,0
TYVAK-182A,2021-034D,2026-07-01T21:05:46.603104,15.06301122,.00040366,97.5715,241.5419,281.2867,78.7907,0,U,48271,999,28204,.37423307E-3,.5439E-4,0
CSS (TIANHE),2021-035A,2026-07-01T19:39:08.186400,15.61427811,.00088722,41.4674,232.9178,195.4262,164.6308,0,U,48274,999,29545,.25313625E-3,.22E-3,0
TYVAK-0130,2021-041BF,2026-07-01T18:22:05.538432,15.27779057,.00089973,52.9979,318.3741,210.6260,149.4214,0,U,48606,999,28261,.32410961E-3,.8578E-4,0
