GONETS-M 19             
1 46488U 20068C   26182.95987759 -.00000047  00000+0 -40997-3 0  9998
2 46488  82.4973 337.8758 0013648  19.0772 341.0816 12.42892324261081
DEKART                  
1 46493U 20068H   26182.98045272  .00014797  00000+0  40169-3 0  9998
2 46493  97.8734 193.3128 0007761 221.3045 138.7612 15.37683443318049
NORBI                   
1 46494U 20068J   26182.95276101  .00028556  00000+0  52641-3 0  9999
2 46494  97.8620 200.2247 0006782 186.4645 173.6518 15.49086179318491
SALSAT                  
1 46495U 20068K   26182.92716775  .00008869  00000+0  30791-3 0  9990
2 46495  97.8846 186.8910 0008027 245.2054 114.8351 15.30008157317615
ICEYE-X6                
1 46497U 20068M   26182.95561007  .00002910  00000+0  21202-3 0  9999
2 46497  98.0967 177.3341 0008352  50.0319 310.1638 15.04600040315453
NETSAT-4                
1 46504U 20068U   26182.96506679  .00021218  00000+0  46129-3 0  9990
2 46504  97.8597 192.3974 0003392 253.0481 107.0394 15.44359065318054
NETSAT-3                
1 46505U 20068V   26182.46384424  .00021692  00000+0  49071-3 0  9993
2 46505  97.8647 190.0546 0002894 286.5770  73.5158 15.43171946317883
NETSAT-1                
1 46506U 20068W   26182.93508325  .00014646  00000+0  43383-3 0  9995
2 46506  97.8743 184.7190 0003162 339.3476  20.7638 15.34979653317568
NETSAT-2                
1 46507U 20068X   26182.27237958  .00031310  00000+0  62895-3 0  9990
2 46507  97.8608 191.5959 0001498 318.0900  42.0233 15.46605782317913
TIANQI-6                
1 46810U 20076D   26182.77695780  .00004073  00000+0  26585-3 0  9994
2 46810  35.0001 318.9180 0010984 296.8980  63.0607 15.07281217310789
KSM1-C                  
1 46906U 20081B   26182.87331015  .00010948  00000+0  40670-3 0  9994
2 46906  36.8968 328.2604 0003203 328.7512  31.3046 15.26987143311411
KSM1-D                  
1 46907U 20081C   26182.82917296  .00008987  00000+0  35593-3 0  9999
2 46907  36.8982 337.8268 0003680 359.8211   0.2536 15.24933941311335
KSM1-A                  
1 46912U 20081H   26182.88412183  .00010118  00000+0  38537-3 0  9996
2 46912  36.8980 330.6985 0002241  53.4222 306.6733 15.26193046311425
R2                      
1 46913U 20081J   26182.84524251  .00009787  00000+0  37890-3 0  9994
2 46913  36.8976 330.9983 0007118  41.4328 318.6960 15.25645687314222
KSM1-B                  
1 46914U 20081K   26182.83467870  .00009540  00000+0  37993-3 0  9998
2 46914  36.9038 338.4328 0004921  29.7464 330.3564 15.24722181314425
GONETS-M 20             
1 47227U 20091A   26182.89794594 -.00000051  00000+0 -44355-3 0  9999
2 47227  82.5059 293.2912 0021801 146.5867 213.6593 12.42893708252901
GONETS-M 21             
1 47228U 20091B   26182.95237684 -.00000026  00000+0 -25615-3 0  9999
2 47228  82.4984 291.9554 0015440 159.2215 200.9495 12.42886959252905
GONETS-M 22             
1 47229U 20091C   26182.92541338 -.00000124  00000+0 -96557-3 0  9993
2 47229  82.5041 292.8777 0022732 142.0834 218.1851 12.42892672252857
CUBEL                   
1 47448U 21006AM  26182.89771002  .00024308  00000+0  57544-3 0  9993
2 47448  97.2319 233.3462 0008003 119.6224 240.5821 15.41745756302023
ARKTIKA-M 1             
1 47719U 21016A   26180.95192977 -.00000281  00000+0  00000+0 0  9994
2 47719  63.2520  55.7907 7292817 269.9910  14.5481  2.00617895 39040
STARLINK-2342           
1 47883U 21021Z   26183.00002315  .00241417  00000+0  91291-3 0  9990
2 47883  53.1528  73.5413 0004454 227.8428  90.7030 15.86514971  5921
GRUS-1B                 
1 47934U 21022C   26182.93131601  .00001104  00000+0  96279-4 0  9999
2 47934  97.5357  65.6417 0014759 269.7704  90.1828 14.98747411288108
UNISAT-7                
1 47945U 21022P   26182.25360747  .00018748  00000+0  45772-3 0  9994
2 47945  97.3881  87.3271 0009809  36.3988 323.7923 15.40850761292029
GLOBAL-9                
1 47971U 21023G   26182.46067615  .00021304  00000+0  41696-3 0  9998
2 47971  44.9790 170.2687 0002957  48.4871 311.6273 15.47103848297157
AII-BRAVO               
1 48270U 21034C   26182.86238361  .00004117  00000+0  30558-3 0  9993
2 48270  97.5607 237.4402 0005116 196.7715 163.3343 15.03585386281826
TYVAK-182A              
1 48271U 21034D   26182.87901161  .00005439  00000+0  37423-3 0  9996
2 48271  97.5715 241.5419 0004036 281.2867  78.7907 15.06301122282046
CSS (TIANHE)            
1 48274U 21035A   26182.81884475  .00022000  00000+0  25314-3 0  9991
2 48274  41.4674 232.9178 0008872 195.4262 164.6308 15.61427811295458
TYVAK-0130              
1 48606U 21041BF  26182.76534188  .00008578  00000+0  32411-3 0  9994
2 48606  52.9979 318.3741 0008997 210.6260 149.4214 15.27779057282618
